[{"OBJECT_NAME":"SCD 1","OBJECT_ID":"1993-009B","EPOCH":"2026-03-09T10:27:49.694112","MEAN_MOTION":14.46067729,"ECCENTRICITY":0.00420469,"INCLINATION":24.9688,"RA_OF_ASC_NODE":103.4557,"ARG_OF_PERICENTER":161.8893,"MEAN_ANOMALY":221.4416,"EPHEMERIS_TYPE":0,"CLASSIFICATION_TYPE":"U","NORAD_CAT_ID":22490,"ELEMENT_SET_NO":999,"REV_AT_EPOCH":74666,"BSTAR":9.424806e-5,"MEAN_MOTION_DOT":5.32e-6,"MEAN_MOTION_DDOT":0},{"OBJECT_NAME":"FENGYUN 1C DEB","OBJECT_ID":"1999-025BXF","EPOCH":"2026-03-07T19:36:28.907136","MEAN_MOTION":14.25627907,"ECCENTRICITY":0.01480084,"INCLINATION":98.835,"RA_OF_ASC_NODE":188.3725,"ARG_OF_PERICENTER":352.689,"MEAN_ANOMALY":158.7635,"EPHEMERIS_TYPE":0,"CLASSIFICATION_TYPE":"U","NORAD_CAT_ID":31516,"ELEMENT_SET_NO":999,"REV_AT_EPOCH":97704,"BSTAR":0.00034714151,"MEAN_MOTION_DOT":8.75e-6,"MEAN_MOTION_DDOT":0}]
